stk.v.11.0

# WrittenBy    STK_v11.4.1

BEGIN Ephemeris

    NumberOfEphemerisPoints		 20161

    ScenarioEpoch		 1 Jan 2019 00:00:00.000000

# Epoch in JDate format: 2458484.50000000000000
# Epoch in YYDDD format:   19001.00000000000000


    InterpolationMethod		 Lagrange

    InterpolationSamplesM1		 5

    CentralBody		 Earth

    CoordinateSystem		 J2000

# Time of first point: 1 Jan 2019 00:00:00.000000000 UTCG = 2458484.50000000000000 JDate = 19001.00000000000000 YYDDD

    EphemerisTimePosVel		

1.0344000000000000e+06 6.1250272189596761e+06 1.4778760242250678e+06 3.2248949463188429e+06 2.3897124904492653e+03 3.5489080434604234e+03 -6.1651311097107719e+03
1.0344600000000000e+06 6.2558903460940355e+06 1.6873531177023875e+06 2.8489820681423317e+06 1.9724670532085875e+03 3.4421488310183877e+03 -6.3698744757645236e+03
1.0345200000000000e+06 6.3614946806737771e+06 1.8900073177080648e+06 2.4615607157935952e+06 1.5472473063618884e+03 3.3215092745600409e+03 -6.5488867450764856e+03
1.0345800000000000e+06 6.4414132186493687e+06 2.0850214670415688e+06 2.0641958771768941e+06 1.1157701390945431e+03 3.1874771089080550e+03 -6.7014447968153117e+03
1.0346400000000000e+06 6.4953226675345926e+06 2.2716092921884670e+06 1.6584927069551426e+06 6.7977774700997770e+02 3.0405940688908127e+03 -6.8269323719198374e+03
1.0347000000000000e+06 6.5230047542108744e+06 2.4490185734706437e+06 1.2460900425358962e+06 2.4103059758571044e+02 2.8814536997453629e+03 -6.9248425624791007e+03
1.0347600000000000e+06 6.5243471086873505e+06 2.6165341775764613e+06 8.2865378398118087e+05 -1.9869967832589879e+02 2.7106989586329628e+03 -6.9947798593930229e+03
1.0348200000000000e+06 6.4993437202332392e+06 2.7734809402361535e+06 4.0787016461197089e+05 -6.3763744022005392e+02 2.5290196169707206e+03 -7.0364617500330251e+03
1.0348800000000000e+06 6.4480949640349085e+06 2.9192263874308970e+06 -1.4561060532452111e+04 -1.0740102080226613e+03 2.3371494740656344e+03 -7.0497198594560332e+03
1.0349400000000000e+06 6.3708071982590957e+06 3.0531832841632329e+06 -4.3693348084736435e+05 -1.5060558195634983e+03 2.1358633933138835e+03 -7.0345006305587540e+03
1.0350000000000000e+06 6.2677919331386611e+06 3.1748120005223742e+06 -8.5754092321595689e+05 -1.9320295465601901e+03 1.9259741729255315e+03 -6.9908655404258197e+03
1.0350600000000000e+06 6.1394645754283024e+06 3.2836226855054069e+06 -1.2746843440884938e+06 -2.3502111403476547e+03 1.7083292638253295e+03 -6.9189908519967548e+03
1.0351200000000000e+06 5.9863427532901913e+06 3.3791772398406169e+06 -1.6866786927693740e+06 -2.7589117789219636e+03 1.4838073479735303e+03 -6.8191669020560194e+03
1.0351800000000000e+06 5.8090442283626208e+06 3.4610910798693048e+06 -2.0918597181802373e+06 -3.1564808872372641e+03 1.2533147909242043e+03 -6.6917969284211995e+03
1.0352400000000000e+06 5.6082844034390841e+06 3.5290346853796402e+06 -2.4885906915960372e+06 -3.5413128032039394e+03 1.0177819829483032e+03 -6.5373954410698279e+03
1.0353000000000000e+06 5.3848734358021086e+06 3.5827349251695941e+06 -2.8752690182193140e+06 -3.9118532624886266e+03 7.7815958347861488e+02 -6.3565861437778394e+03
1.0353600000000000e+06 5.1397129678735686e+06 3.6219761549987742e+06 -3.2503327108561620e+06 -4.2666056758970853e+03 5.3541468405381397e+02 -6.1500994146739768e+03
1.0354200000000000e+06 4.8737924883618932e+06 3.6466010835239994e+06 -3.6122666995666125e+06 -4.6041371740098421e+03 2.9052690523293683e+02 -5.9187693558802757e+03
1.0354800000000000e+06 4.5881853386047753e+06 3.6565114027340519e+06 -3.9596089517851472e+06 -4.9230843946401110e+03 4.4484443246346707e+01 -5.6635304241639760e+03
1.0355400000000000e+06 4.2840443802084997e+06 3.6516681803626381e+06 -4.2909563782098815e+06 -5.2221589897581935e+03 -2.0171991767932332e+02 -5.3854136561985715e+03
1.0356000000000000e+06 3.9625973414911749e+06 3.6320920127091510e+06 -4.6049705005776649e+06 -5.5001528296140623e+03 -4.4709281121146938e+02 -5.0855425036983379e+03
1.0356600000000000e+06 3.6251418614969202e+06 3.5978629372718018e+06 -4.9003828584507182e+06 -5.7559428830559600e+03 -6.9064429687006634e+02 -4.7651282952370975e+03
1.0357200000000000e+06 3.2730402516034646e+06 3.5491201055586082e+06 -5.1760001331599923e+06 -5.9884957543181117e+03 -9.3139185386747727e+02 -4.4254653430949147e+03
1.0357800000000000e+06 2.9077139958455162e+06 3.4860612174177296e+06 -5.4307089682240523e+06 -6.1968718579642282e+03 -1.1683643447385284e+03 -4.0679257148804409e+03
1.0358400000000000e+06 2.5306380121856434e+06 3.4089417191831763e+06 -5.6634804667503312e+06 -6.3802292151023621e+03 -1.4006059327452656e+03 -3.6939536910719330e+03
1.0359000000000000e+06 2.1433346978781708e+06 3.3180737688910379e+06 -5.8733743476674268e+06 -6.5378268555461445e+03 -1.6271799372748860e+03 -3.3050599308485480e+03
1.0359600000000000e+06 1.7473677829764611e+06 3.2138249727544719e+06 -6.0595427439935300e+06 -6.6690278121715019e+03 -1.8471726116682432e+03 -2.9028153697844032e+03
1.0360200000000000e+06 1.3443360168026777e+06 3.0966168980173524e+06 -6.2212336277951756e+06 -6.7733016953650540e+03 -2.0596968282455746e+03 -2.4888448740632398e+03
1.0360800000000000e+06 9.3586671285254206e+05 2.9669233681946099e+06 -6.3577938480108296e+06 -6.8502268371669606e+03 -2.2638956556743969e+03 -2.0648206768257483e+03
1.0361400000000000e+06 5.2360917822509713e+05 2.8252685476017352e+06 -6.4686717688548593e+06 -6.8994919964304954e+03 -2.4589458142404260e+03 -1.6324556231922393e+03
1.0362000000000000e+06 1.0922805408465059e+05 2.6722248229107508e+06 -6.5534194981543403e+06 -6.9208976181102116e+03 -2.6440609951021979e+03 -1.1934962512243001e+03
1.0362600000000000e+06 -3.0560340593770891e+05 2.5084104902996258e+06 -6.6116946966116875e+06 -6.9143566415802316e+03 -2.8184950301377771e+03 -7.4971573679290611e+02
1.0363200000000000e+06 -7.1921009228546615e+05 2.3344872575323200e+06 -6.6432619606894134e+06 -6.8798948547104292e+03 -2.9815448996148607e+03 -3.0290673082714250e+02
1.0363800000000000e+06 -1.1299218036491817e+06 2.1511575710719628e+06 -6.6479937735249810e+06 -6.8176507922584542e+03 -3.1325535655493500e+03 1.4512588209110964e+02
1.0364400000000000e+06 -1.5360799914776769e+06 1.9591617790158964e+06 -6.6258710200391216e+06 -6.7278751789794951e+03 -3.2709126193414741e+03 5.9257227455839541e+02
1.0365000000000000e+06 -1.9360444575857294e+06 1.7592751413134399e+06 -6.5769830641546547e+06 -6.6109299196908878e+03 -3.3960647330187107e+03 1.0376249871477075e+03
1.0365600000000000e+06 -2.3281999778042966e+06 1.5523046993438804e+06 -6.5015273878155723e+06 -6.4672866403624857e+03 -3.5075059042066259e+03 1.4784862296333870e+03
1.0366200000000000e+06 -2.7109628249461041e+06 1.3390860174845068e+06 -6.3998087932614619e+06 -6.2975247861077942e+03 -3.6047874857909419e+03 1.9133751431734199e+03
1.0366800000000000e+06 -3.0827871647157003e+06 1.1204798098389236e+06 -6.2722381717833737e+06 -6.1023292837547260e+03 -3.6875179920888650e+03 2.3405349940817796e+03
1.0367400000000000e+06 -3.4421712987569007e+06 8.9736846573182102e+05 -6.1193308439316582e+06 -5.8824877784170712e+03 -3.7553646742666165e+03 2.7582402701568822e+03
1.0368000000000000e+06 -3.7876637296112301e+06 6.7065248798504553e+05 -5.9417044778847769e+06 -5.6388874552037760e+03 -3.8080548586883392e+03 3.1648036508820956e+03
1.0368600000000000e+06 -4.1178690230899877e+06 4.4124685846227687e+05 -5.7400765943793841e+06 -5.3725114590039939e+03 -3.8453770426297792e+03 3.5585828233662769e+03
1.0369200000000000e+06 -4.4314534444190608e+06 2.1007734526239766e+05 -5.5152616682912596e+06 -5.0844349264965349e+03 -3.8671817434251770e+03 3.9379871164609149e+03
1.0369800000000000e+06 -4.7271503453254513e+06 -2.1923233147390158e+04 -5.2681678385665286e+06 -4.7758206468050939e+03 -3.8733820970021479e+03 4.3014839262799023e+03
1.0370400000000000e+06 -5.0037652803610414e+06 -2.5381877206859650e+05 -4.9997932398018138e+06 -4.4479143680107554e+03 -3.8639542038902928e+03 4.6476049071487350e+03
1.0371000000000000e+06 -5.2601808317856099e+06 -4.8467365768568596e+05 -4.7112219702779679e+06 -4.1020397685748258e+03 -3.8389372211302179e+03 4.9749519029959047e+03
1.0371600000000000e+06 -5.4953611235032948e+06 -7.1355654192064074e+05 -4.4036197127522035e+06 -3.7395931139708287e+03 -3.7984331997639842e+03 5.2822025952005752e+03
1.0372200000000000e+06 -5.7083560058339443e+06 -9.3954409980916197e+05 -4.0782290256853243e+06 -3.3620376200799292e+03 -3.7426066685802853e+03 5.5681158441017242e+03
1.0372800000000000e+06 -5.8983048942075409e+06 -1.1617247542368453e+06 -3.7363643239290291e+06 -2.9708975461085215e+03 -3.6716839658125946e+03 5.8315367025846635e+03
1.0373400000000000e+06 -6.0644402462702943e+06 -1.3792023530052430e+06 -3.3794065691554197e+06 -2.5677520408830560e+03 -3.5859523215058061e+03 6.0714010814884432e+03
1.0374000000000000e+06 -6.2060906633635396e+06 -1.5910997834067503e+06 -3.0087976914581507e+06 -2.1542287673449773e+03 -3.4857586942675207e+03 6.2867400480020424e+03
1.0374600000000000e+06 -6.3226836038293745e+06 -1.7965625097136467e+06 -2.6260347646837477e+06 -1.7319973310132673e+03 -3.3715083671204379e+03 6.4766837396672981e+03
1.0375200000000000e+06 -6.4137476971882507e+06 -1.9947620193283060e+06 -2.2326639590020301e+06 -1.3027625389234956e+03 -3.2436633081346249e+03 6.6404648781926235e+03
1.0375800000000000e+06 -6.4789146498291735e+06 -2.1848991636855891e+06 -1.8302742951601043e+06 -8.6825751627944999e+02 -3.1027403024742498e+03 6.7774218688744168e+03
1.0376400000000000e+06 -6.5179207345132194e+06 -2.3662073804482836e+06 -1.4204912256271322e+06 -4.3023670858439209e+02 -2.9493088634052183e+03 6.8870014731156334e+03
1.0377000000000000e+06 -6.5306078576596733e+06 -2.5379557839897224e+06 -1.0049700685869997e+06 9.5312024620493165e+00 -2.7839889307171115e+03 6.9687610432339543e+03
1.0377600000000000e+06 -6.5169242001004731e+06 -2.6994521117152087e+06 -5.8538932128124870e+05 4.4927044072021130e+02 -2.6074483658539134e+03 7.0223703105412942e+03
END Ephemeris
